{
  "type": "FeatureCollection",
  "features": [
    {
      "type": "Feature",
      "properties": {
        "norad_id": 66632,
        "name": "STARLINK-35973",
        "group": "last-30-days",
        "lat": -8.847856752059625,
        "lon": -13.186910598400223,
        "alt_km": 449.20055084507476,
        "timestamp": "2025-12-18T10:51:24.514405+00:00",
        "meta_object_name": "STARLINK-35973",
        "meta_object_id": "2025-271R",
        "meta_epoch": "2025-12-17T22:00:01.999584",
        "meta_mean_motion": 15.3958013,
        "meta_eccentricity": 0.00011935,
        "meta_inclination": 53.1584,
        "meta_ra_of_asc_node": 162.6357,
        "meta_arg_of_pericenter": 92.2571,
        "meta_mean_anomaly": 7.9778,
        "meta_ephemeris_type": 0,
        "meta_classification_type": "U",
        "meta_norad_cat_id": 66632,
        "meta_element_set_no": 999,
        "meta_rev_at_epoch": 501,
        "meta_bstar": 0.0018146305,
        "meta_mean_motion_dot": 0.00072784,
        "meta_mean_motion_ddot": 0,
        "tle_line1": "1 66632U 25271R   25351.91668981  .00072784  00000+0  18146-2 0  9993",
        "tle_line2": "2 66632  53.1584 162.6357 0001193  92.2571   7.9778 15.39580130  5010"
      },
      "geometry": {
        "type": "Point",
        "coordinates": [
          -13.186910598400223,
          -8.847856752059625
        ]
      }
    },
    {
      "type": "Feature",
      "properties": {
        "norad_id": 66633,
        "name": "STARLINK-35948",
        "group": "last-30-days",
        "lat": -10.293501881300074,
        "lon": -12.067804734411366,
        "alt_km": 449.43789186847425,
        "timestamp": "2025-12-18T10:51:24.514417+00:00",
        "meta_object_name": "STARLINK-35948",
        "meta_object_id": "2025-271S",
        "meta_epoch": "2025-12-17T22:00:01.999584",
        "meta_mean_motion": 15.39579936,
        "meta_eccentricity": 0.00011349,
        "meta_inclination": 53.1584,
        "meta_ra_of_asc_node": 162.631,
        "meta_arg_of_pericenter": 88.099,
        "meta_mean_anomaly": 13.9599,
        "meta_ephemeris_type": 0,
        "meta_classification_type": "U",
        "meta_norad_cat_id": 66633,
        "meta_element_set_no": 999,
        "meta_rev_at_epoch": 507,
        "meta_bstar": 0.0017949121,
        "meta_mean_motion_dot": 0.00071981,
        "meta_mean_motion_ddot": 0,
        "tle_line1": "1 66633U 25271S   25351.91668981  .00071981  00000+0  17949-2 0  9992",
        "tle_line2": "2 66633  53.1584 162.6310 0001134  88.0990  13.9599 15.39579936  5079"
      },
      "geometry": {
        "type": "Point",
        "coordinates": [
          -12.067804734411366,
          -10.293501881300074
        ]
      }
    },
    {
      "type": "Feature",
      "properties": {
        "norad_id": 66634,
        "name": "STARLINK-35967",
        "group": "last-30-days",
        "lat": -29.953424671925532,
        "lon": 5.651169470774187,
        "alt_km": 451.4218172840865,
        "timestamp": "2025-12-18T10:51:24.514427+00:00",
        "meta_object_name": "STARLINK-35967",
        "meta_object_id": "2025-271T",
        "meta_epoch": "2025-12-17T22:00:01.999584",
        "meta_mean_motion": 15.39597163,
        "meta_eccentricity": 8.458e-05,
        "meta_inclination": 53.1596,
        "meta_ra_of_asc_node": 162.5788,
        "meta_arg_of_pericenter": 52.1627,
        "meta_mean_anomaly": 75.5826,
        "meta_ephemeris_type": 0,
        "meta_classification_type": "U",
        "meta_norad_cat_id": 66634,
        "meta_element_set_no": 999,
        "meta_rev_at_epoch": 500,
        "meta_bstar": 0.0021337342,
        "meta_mean_motion_dot": 0.0008585,
        "meta_mean_motion_ddot": 0,
        "tle_line1": "1 66634U 25271T   25351.91668981  .00085850  00000+0  21337-2 0  9999",
        "tle_line2": "2 66634  53.1596 162.5788 0000845  52.1627  75.5826 15.39597163  5000"
      },
      "geometry": {
        "type": "Point",
        "coordinates": [
          5.651169470774187,
          -29.953424671925532
        ]
      }
    },
    {
      "type": "Feature",
      "properties": {
        "norad_id": 66635,
        "name": "STARLINK-35955",
        "group": "last-30-days",
        "lat": -53.14027871374807,
        "lon": 70.03437424548379,
        "alt_km": 452.805111364205,
        "timestamp": "2025-12-18T10:51:24.514437+00:00",
        "meta_object_name": "STARLINK-35955",
        "meta_object_id": "2025-271U",
        "meta_epoch": "2025-12-17T22:00:01.999584",
        "meta_mean_motion": 15.39553677,
        "meta_eccentricity": 0.00011892,
        "meta_inclination": 53.1598,
        "meta_ra_of_asc_node": 162.477,
        "meta_arg_of_pericenter": 83.5381,
        "meta_mean_anomaly": 95.8186,
        "meta_ephemeris_type": 0,
        "meta_classification_type": "U",
        "meta_norad_cat_id": 66635,
        "meta_element_set_no": 999,
        "meta_rev_at_epoch": 507,
        "meta_bstar": 0.0020622341,
        "meta_mean_motion_dot": 0.00082807,
        "meta_mean_motion_ddot": 0,
        "tle_line1": "1 66635U 25271U   25351.91668981  .00082807  00000+0  20622-2 0  9995",
        "tle_line2": "2 66635  53.1598 162.4770 0001189  83.5381  95.8186 15.39553677  5073"
      },
      "geometry": {
        "type": "Point",
        "coordinates": [
          70.03437424548379,
          -53.14027871374807
        ]
      }
    },
    {
      "type": "Feature",
      "properties": {
        "norad_id": 66636,
        "name": "STARLINK-35968",
        "group": "last-30-days",
        "lat": -46.111685992339964,
        "lon": 31.20775635544046,
        "alt_km": 452.1256035242004,
        "timestamp": "2025-12-18T10:51:24.514450+00:00",
        "meta_object_name": "STARLINK-35968",
        "meta_object_id": "2025-271V",
        "meta_epoch": "2025-12-17T22:00:01.999584",
        "meta_mean_motion": 15.3957238,
        "meta_eccentricity": 6.247e-05,
        "meta_inclination": 53.16,
        "meta_ra_of_asc_node": 162.5279,
        "meta_arg_of_pericenter": 93.5664,
        "meta_mean_anomaly": 59.9177,
        "meta_ephemeris_type": 0,
        "meta_classification_type": "U",
        "meta_norad_cat_id": 66636,
        "meta_element_set_no": 999,
        "meta_rev_at_epoch": 507,
        "meta_bstar": 0.0018454956,
        "meta_mean_motion_dot": 0.00074022,
        "meta_mean_motion_ddot": 0,
        "tle_line1": "1 66636U 25271V   25351.91668981  .00074022  00000+0  18455-2 0  9997",
        "tle_line2": "2 66636  53.1600 162.5279 0000624  93.5664  59.9177 15.39572380  5074"
      },
      "geometry": {
        "type": "Point",
        "coordinates": [
          31.20775635544046,
          -46.111685992339964
        ]
      }
    },
    {
      "type": "Feature",
      "properties": {
        "norad_id": 66637,
        "name": "STARLINK-35953",
        "group": "last-30-days",
        "lat": -46.155828442811845,
        "lon": 108.58590831329862,
        "alt_km": 449.35216360506183,
        "timestamp": "2025-12-18T10:51:24.514461+00:00",
        "meta_object_name": "STARLINK-35953",
        "meta_object_id": "2025-271W",
        "meta_epoch": "2025-12-17T22:00:01.999584",
        "meta_mean_motion": 15.42724815,
        "meta_eccentricity": 0.00017033,
        "meta_inclination": 53.1597,
        "meta_ra_of_asc_node": 162.4341,
        "meta_arg_of_pericenter": 52.2869,
        "meta_mean_anomaly": 148.715,
        "meta_ephemeris_type": 0,
        "meta_classification_type": "U",
        "meta_norad_cat_id": 66637,
        "meta_element_set_no": 999,
        "meta_rev_at_epoch": 507,
        "meta_bstar": -0.044964506,
        "meta_mean_motion_dot": -0.01799366,
        "meta_mean_motion_ddot": 0,
        "tle_line1": "1 66637U 25271W   25351.91668981 -.01799366  00000+0 -44965-1 0  9990",
        "tle_line2": "2 66637  53.1597 162.4341 0001703  52.2869 148.7150 15.42724815  5071"
      },
      "geometry": {
        "type": "Point",
        "coordinates": [
          108.58590831329862,
          -46.155828442811845
        ]
      }
    },
    {
      "type": "Feature",
      "properties": {
        "norad_id": 66638,
        "name": "STARLINK-35972",
        "group": "last-30-days",
        "lat": -24.23193613607119,
        "lon": 140.1115461138522,
        "alt_km": 421.7787005288901,
        "timestamp": "2025-12-18T10:51:24.514470+00:00",
        "meta_object_name": "STARLINK-35972",
        "meta_object_id": "2025-271X",
        "meta_epoch": "2025-12-17T19:30:29.230848",
        "meta_mean_motion": 15.49326435,
        "meta_eccentricity": 9.546e-05,
        "meta_inclination": 53.1593,
        "meta_ra_of_asc_node": 162.8921,
        "meta_arg_of_pericenter": 44.6162,
        "meta_mean_anomaly": 315.4923,
        "meta_ephemeris_type": 0,
        "meta_classification_type": "U",
        "meta_norad_cat_id": 66638,
        "meta_element_set_no": 999,
        "meta_rev_at_epoch": 499,
        "meta_bstar": 0.00099464163,
        "meta_mean_motion_dot": 0.00055296,
        "meta_mean_motion_ddot": 0,
        "tle_line1": "1 66638U 25271X   25351.81283832  .00055296  00000+0  99464-3 0  9998",
        "tle_line2": "2 66638  53.1593 162.8921 0000954  44.6162 315.4923 15.49326435  4998"
      },
      "geometry": {
        "type": "Point",
        "coordinates": [
          140.1115461138522,
          -24.23193613607119
        ]
      }
    }
  ]
}